OBJECT_NAME,OBJECT_ID,EPOCH,MEAN_MOTION,ECCENTRICITY,INCLINATION,RA_OF_ASC_NODE,ARG_OF_PERICENTER,MEAN_ANOMALY,EPHEMERIS_TYPE,CLASSIFICATION_TYPE,NORAD_CAT_ID,ELEMENT_SET_NO,REV_AT_EPOCH,BSTAR,MEAN_MOTION_DOT,MEAN_MOTION_DDOT
ORBCOMM FM06,1997-084G,2026-06-18T09:43:44.985792,14.47565309,.00010635,45.0146,46.8475,336.1201,193.1751,0,U,25118,999,49456,.29543888E-3,.952E-5,0
ORBCOMM FM04,1998-007C,2026-06-17T22:50:40.043904,14.35742552,.00413662,107.9626,170.9931,323.4493,36.3827,0,U,25159,999,47670,.26760024E-3,.649E-5,0
ORBCOMM FM19,1998-046C,2026-06-18T11:03:19.106784,14.39497394,.00045547,44.9924,237.5080,286.5139,88.2640,0,U,25415,999,45696,.21046261E-3,.52E-5,0
ORBCOMM FM20,1998-046D,2026-06-18T11:19:26.195808,14.38067772,.00023378,44.9934,245.3920,254.3977,105.6613,0,U,25416,999,45697,.17209331E-3,.384E-5,0
ORBCOMM FM27,1998-053G,2026-06-18T12:09:19.433088,14.39143180,.00011676,45.0041,329.0860,198.1538,161.9270,0,U,25481,999,45042,.25987843E-3,.669E-5,0
ORBCOMM FM32,1999-065C,2026-06-18T09:39:51.725664,14.37130859,.00044185,45.0134,167.4864,41.8087,318.3098,0,U,25982,999,38726,.15057794E-3,.309E-5,0
ORBCOMM FM109,2014-040A,2026-06-18T11:14:00.008160,14.58846001,.00019134,47.0030,85.4302,249.6241,110.4439,0,U,40086,999,63453,.10074579E-3,.305E-5,0
ORBCOMM FM110,2015-081D,2026-06-17T22:13:04.647936,14.58881675,.00024948,47.0033,357.9511,80.4208,279.6960,0,U,41182,999,55773,.15044486E-3,.54E-5,0
ORBCOMM FM118,2015-081E,2026-06-18T13:49:58.609920,14.58880676,.00025194,47.0047,355.2056,35.8519,324.2536,0,U,41183,999,55793,.46386395E-3,.2023E-4,0
ORBCOMM FM112,2015-081F,2026-06-18T07:22:02.315136,14.58905836,.00037945,46.9989,264.9521,222.4136,137.6457,0,U,41184,999,55911,.1279563E-3,.434E-5,0
ORBCOMM FM113,2015-081G,2026-06-18T13:22:54.902496,14.58859605,.00023316,47.0009,264.1441,229.2783,130.7900,0,U,41185,999,55913,.87915154E-4,.244E-5,0
ORBCOMM FM108,2015-081J,2026-06-18T00:58:24.502368,14.58870752,.00029879,47.0030,178.1625,224.9174,135.1471,0,U,41187,999,56020,.90814462E-4,.258E-5,0
ORBCOMM FM117,2015-081K,2026-06-18T10:00:28.529568,14.58865684,.00035264,46.9993,175.0163,229.3841,130.6739,0,U,41188,999,56030,.70743547E-4,.163E-5,0
ORBCOMM FM116,2015-081L,2026-06-18T12:49:32.385504,14.58885082,.00005285,47.0018,264.2516,80.7304,279.3642,0,U,41189,999,55913,.12864281E-3,.437E-5,0
